OBJECT_NAME,OBJECT_ID,EPOCH,MEAN_MOTION,ECCENTRICITY,INCLINATION,RA_OF_ASC_NODE,ARG_OF_PERICENTER,MEAN_ANOMALY,EPHEMERIS_TYPE,CLASSIFICATION_TYPE,NORAD_CAT_ID,ELEMENT_SET_NO,REV_AT_EPOCH,BSTAR,MEAN_MOTION_DOT,MEAN_MOTION_DDOT
FLORIPASAT-1,2019-093G,2026-07-19T07:01:13.322784,15.04158469,.00106258,97.7908,294.7657,325.0744,34.9783,0,U,44885,999,35747,.16369726E-3,.221E-4,0
SHUNTIAN,2019-093H,2026-07-19T06:18:48.021120,14.95290153,.00104749,97.8007,288.2622,324.6344,35.4181,0,U,44886,999,35697,.14747516E-3,.1567E-4,0
ELEKTRO-L 3,2019-095A,2026-07-19T03:57:21.795840,1.00271683,.00014812,0.3374,82.3610,18.7927,331.1277,0,U,44903,999,2402,0,-.102E-5,0
GONETS-M 14,2019-096A,2026-07-19T05:56:21.648192,12.42870749,.00144473,82.5210,64.7613,82.3989,277.8731,0,U,44905,999,29766,-.65862775E-3,-.81E-6,0
GONETS-M 15,2019-096B,2026-07-19T06:38:32.136576,12.42883312,.0016195,82.5229,65.2096,103.8725,256.4158,0,U,44906,999,29763,-.97208515E-4,-.3E-7,0
GONETS-M 16,2019-096C,2026-07-19T07:15:39.405888,12.42892657,.00111801,82.5175,64.1309,142.6596,217.5263,0,U,44907,999,29762,-.13949197E-3,-.9E-7,0
RS-44 & BREEZE-KM R/B,2019-096E,2026-07-19T07:02:57.747552,12.79748904,.0218464,82.5244,318.3715,69.4639,292.9757,0,U,44909,999,30645,.20885198E-4,.18E-6,0
JILIN-1 KUANFU 01,2020-003A,2026-07-19T05:01:13.389600,15.10879757,.00096621,97.5017,273.5405,182.9116,177.2060,0,U,45016,999,36016,.98397447E-4,.1575E-4,0
XINGYUN-2 01,2020-028A,2026-07-19T05:48:14.073984,15.11927911,.00109254,97.4885,192.0116,92.2484,267.9997,0,U,45602,999,33968,.10330087E-3,.1708E-4,0
XINGYUN-2 02,2020-028B,2026-07-19T05:25:46.900128,15.11647581,.00114652,97.5073,205.6574,153.1123,207.0704,0,U,45603,999,33967,.86580287E-4,.141E-4,0
HAIYANG-1D,2020-036A,2026-07-19T06:35:57.827040,14.34183255,.00039666,98.4562,141.2587,62.4227,297.7361,0,U,45721,999,31957,.9834274E-4,.233E-5,0
M2 PATHFINDER,2020-037E,2026-07-19T02:22:26.431392,15.04798236,.00125495,97.8140,31.6917,50.1825,310.0503,0,U,45727,999,33029,.68316464E-4,.901E-5,0
GAOFEN DUOMO (GFDM),2020-042A,2026-07-19T07:43:05.247264,14.76804556,.00103846,97.7723,259.0358,339.3956,20.6834,0,U,45856,999,32575,.32802487E-4,.181E-5,0
ZIYUAN 3-03 (ZY 3-03),2020-051A,2026-07-19T06:46:31.042272,15.21216191,.00030775,97.5357,267.3040,223.8923,136.2068,0,U,45939,999,33222,.71006521E-4,.1513E-4,0
NEMO-HD,2020-061F,2026-07-19T07:42:14.294592,15.45190669,.00010269,97.1895,261.9598,108.5550,251.5811,0,U,46277,999,32694,.13375496E-3,.6259E-4,0
NAPA-1,2020-061BA,2026-07-19T06:44:39.448896,15.72407643,.00027297,97.2429,275.6174,170.5316,189.6000,0,U,46320,999,32677,.37513599E-3,.49858E-3,0
JILIN-1 GAOFEN 3E,2020-065D,2026-07-19T05:48:34.880832,15.67617204,.00095644,97.2199,253.6812,58.8566,301.3632,0,U,46457,999,32477,.42700372E-3,.46654E-3,0
JILIN-1 GAOFEN 3F,2020-065E,2026-07-19T06:21:56.818944,15.64265318,.00108015,97.2159,250.8728,43.9178,316.2938,0,U,46458,999,32471,.38675667E-3,.3693E-3,0
JILIN-1 GAOFEN 3G,2020-065F,2026-07-19T05:51:57.969216,15.77617791,.00059229,97.2208,258.2592,253.9197,106.1418,0,U,46459,999,32498,.48909382E-3,.81851E-3,0
JILIN-1 GAOFEN 3H,2020-065G,2026-07-19T07:12:08.716032,15.72796597,.00070162,97.2160,254.4194,188.9434,171.1706,0,U,46460,999,32492,.44720608E-3,.60595E-3,0
HAIYANG-2C,2020-066A,2026-07-19T06:21:04.949568,13.83373130,.00074429,65.9975,135.4198,236.8479,123.1876,0,U,46469,999,29393,.34520674E-4,-.43E-6,0
HJ-2A,2020-067A,2026-07-19T06:53:07.366848,14.76549999,.0004467,97.8818,277.8991,144.3431,215.8078,0,U,46478,999,31299,-.25990252E-4,-.231E-5,0
HJ-2B,2020-067B,2026-07-19T07:45:51.960384,14.76513983,.00020665,97.8882,278.9823,103.3157,256.8284,0,U,46479,999,31300,.75694192E-4,.478E-5,0
GONETS-M 17,2020-068A,2026-07-19T07:52:22.007136,12.42874723,.00216714,82.5021,327.5075,327.3207,32.6531,0,U,46486,999,26315,.15299907E-2,.222E-5,0
GONETS-M 18,2020-068B,2026-07-19T07:00:00.846144,12.42875247,.00189132,82.4975,326.6357,323.8451,36.1349,0,U,46487,999,26313,.71737306E-3,.109E-5,0
GONETS-M 19,2020-068C,2026-07-19T06:23:58.147008,12.42893185,.00128704,82.5000,327.1075,340.9125,19.1471,0,U,46488,999,26323,.84257783E-3,.127E-5,0
DEKART,2020-068H,2026-07-19T06:55:03.313056,15.38005101,.0009699,97.8746,211.8741,159.2796,200.8842,0,U,46493,999,32070,.1870911E-3,.6912E-4,0
