FLORIPASAT-1            
1 44885U 19093G   26200.29251531  .00002210  00000+0  16370-3 0  9993
2 44885  97.7908 294.7657 0010625 325.0744  34.9783 15.04158469357473
SHUNTIAN                
1 44886U 19093H   26200.26305580  .00001567  00000+0  14748-3 0  9996
2 44886  97.8007 288.2622 0010474 324.6344  35.4181 14.95290153356976
ELEKTRO-L 3             
1 44903U 19095A   26200.16483560 -.00000102  00000+0  00000+0 0  9999
2 44903   0.3374  82.3610 0001481  18.7927 331.1277  1.00271683 24027
GONETS-M 14             
1 44905U 19096A   26200.24747278 -.00000081  00000+0 -65863-3 0  9999
2 44905  82.5210  64.7613 0014447  82.3989 277.8731 12.42870749297667
GONETS-M 15             
1 44906U 19096B   26200.27676084 -.00000003  00000+0 -97209-4 0  9993
2 44906  82.5229  65.2096 0016195 103.8725 256.4158 12.42883312297631
GONETS-M 16             
1 44907U 19096C   26200.30253942 -.00000009  00000+0 -13949-3 0  9996
2 44907  82.5175  64.1309 0011180 142.6596 217.5263 12.42892657297629
RS-44 & BREEZE-KM R/B   
1 44909U 19096E   26200.29372393  .00000018  00000+0  20885-4 0  9994
2 44909  82.5244 318.3715 0218464  69.4639 292.9757 12.79748904306453
JILIN-1 KUANFU 01       
1 45016U 20003A   26200.20918275  .00001575  00000+0  98397-4 0  9992
2 45016  97.5017 273.5405 0009662 182.9116 177.2060 15.10879757360163
XINGYUN-2 01            
1 45602U 20028A   26200.24182956  .00001708  00000+0  10330-3 0  9991
2 45602  97.4885 192.0116 0010925  92.2484 267.9997 15.11927911339681
XINGYUN-2 02            
1 45603U 20028B   26200.22623727  .00001410  00000+0  86580-4 0  9997
2 45603  97.5073 205.6574 0011465 153.1123 207.0704 15.11647581339670
HAIYANG-1D              
1 45721U 20036A   26200.27497485  .00000233  00000+0  98343-4 0  9994
2 45721  98.4562 141.2587 0003966  62.4227 297.7361 14.34183255319576
M2 PATHFINDER           
1 45727U 20037E   26200.09891703  .00000901  00000+0  68316-4 0  9991
2 45727  97.8140  31.6917 0012549  50.1825 310.0503 15.04798236330299
GAOFEN DUOMO (GFDM)     
1 45856U 20042A   26200.32158851  .00000181  00000+0  32802-4 0  9997
2 45856  97.7723 259.0358 0010384 339.3956  20.6834 14.76804556325752
ZIYUAN 3-03 (ZY 3-03)   
1 45939U 20051A   26200.28230373  .00001513  00000+0  71007-4 0  9994
2 45939  97.5357 267.3040 0003077 223.8923 136.2068 15.21216191332223
NEMO-HD                 
1 46277U 20061F   26200.32099878  .00006259  00000+0  13375-3 0  9994
2 46277  97.1895 261.9598 0001026 108.5550 251.5811 15.45190669326943
NAPA-1                  
1 46320U 20061BA  26200.28101214  .00049858  00000+0  37514-3 0  9999
2 46320  97.2429 275.6174 0002729 170.5316 189.6000 15.72407643326773
JILIN-1 GAOFEN 3E       
1 46457U 20065D   26200.24207038  .00046654  00000+0  42700-3 0  9995
2 46457  97.2199 253.6812 0009564  58.8566 301.3632 15.67617204324774
JILIN-1 GAOFEN 3F       
1 46458U 20065E   26200.26524096  .00036930  00000+0  38676-3 0  9997
2 46458  97.2159 250.8728 0010801  43.9178 316.2938 15.64265318324716
JILIN-1 GAOFEN 3G       
1 46459U 20065F   26200.24442094  .00081851  00000+0  48909-3 0  9995
2 46459  97.2208 258.2592 0005922 253.9197 106.1418 15.77617791324983
JILIN-1 GAOFEN 3H       
1 46460U 20065G   26200.30010088  .00060595  00000+0  44721-3 0  9998
2 46460  97.2160 254.4194 0007016 188.9434 171.1706 15.72796597324928
HAIYANG-2C              
1 46469U 20066A   26200.26464062 -.00000043  00000+0  34521-4 0  9999
2 46469  65.9975 135.4198 0007442 236.8479 123.1876 13.83373130293935
HJ-2A                   
1 46478U 20067A   26200.28689082 -.00000231  00000+0 -25990-4 0  9993
2 46478  97.8818 277.8991 0004467 144.3431 215.8078 14.76549999312994
HJ-2B                   
1 46479U 20067B   26200.32351806  .00000478  00000+0  75694-4 0  9996
2 46479  97.8882 278.9823 0002066 103.3157 256.8284 14.76513983313006
GONETS-M 17             
1 46486U 20068A   26200.32803249  .00000222  00000+0  15300-2 0  9991
2 46486  82.5021 327.5075 0021671 327.3207  32.6531 12.42874723263155
GONETS-M 18             
1 46487U 20068B   26200.29167646  .00000109  00000+0  71737-3 0  9993
2 46487  82.4975 326.6357 0018913 323.8451  36.1349 12.42875247263139
GONETS-M 19             
1 46488U 20068C   26200.26664522  .00000127  00000+0  84258-3 0  9998
2 46488  82.5000 327.1075 0012870 340.9125  19.1471 12.42893185263236
DEKART                  
1 46493U 20068H   26200.28823279  .00006912  00000+0  18709-3 0  9998
2 46493  97.8746 211.8741 0009699 159.2796 200.8842 15.38005101320705
